ONEWEB-0452             
1 51644C 22012Y   22349.38625414 -.00058053  00000-0 -14963-0 0  3495
2 51644  87.9105 260.1323 0001319  97.7136 321.3375 13.17743444    19
ONEWEB-0456             
1 51646C 22012AA  22349.46059442 -.00001583  00000-0 -45390-2 0  3494
2 51646  87.8795 290.6160 0002171  74.1828  30.8307 13.10381370    12
ONEWEB-0457             
1 51647C 22012AB  22349.06125415 -.00002895  00000-0 -83040-2 0  3496
2 51647  87.8879 290.6578 0001125  69.7178  55.5752 13.10372952    19
ONEWEB-0458             
1 51648C 22012AC  22349.07271249 -.00001046  00000-0 -29987-2 0  3492
2 51648  87.8749 290.6652 0002095  89.4025 354.2685 13.10377184    12
ONEWEB-0461             
1 51649C 22012AD  22349.29946016 -.00000605  00000-0 -12769-2 0  3498
2 51649  87.9609 260.0161 0002801  70.8720  17.6489 13.31124521    16
ONEWEB-0463             
1 51650C 22012AE  22349.38941387 -.00001280  00000-0 -33001-2 0  3498
2 51650  87.9093 260.1592 0001171  72.9496 346.4921 13.17658914    12
ONEWEB-0464             
1 51651C 22012AF  22349.06233053 -.00001579  00000-0 -45275-2 0  3495
2 51651  87.8786 290.6681 0002401  86.0643 323.3757 13.10379813    17
ONEWEB-0468             
1 51652C 22012AG  22349.46231896 -.00001490  00000-0 -42732-2 0  3490
2 51652  87.8788 290.6068 0001830  79.8227  26.1224 13.10371942    14
ONEWEB-0473             
1 51653C 22012AH  22349.51406664 -.00002278  00000-0 -65339-2 0  3497
2 51653  87.8744 290.5821 0002136  88.9228 327.0382 13.10380787    10
ONEWEB-0474             
1 51654C 22012AJ  22349.12623101 -.00000271  00000-0 -77837-3 0  3490
2 51654  87.8775 290.6523 0002334  85.7651 338.4796 13.10373835    11
ONEWEB-0475             
1 51655C 22012AK  22349.39599951 -.00001712  00000-0 -44048-2 0  3493
2 51655  87.9089 260.1354 0001393 105.3380 315.0490 13.17796800    17
ONEWEB-0490             
1 54113C 22138A   22349.29774721 -.01420810  00000-0 -83834-0 0  3492
2 54113  87.6126 200.4134 0015709 101.9623 220.9251 14.09334788    13
ONEWEB-0492             
1 54114C 22138B   22349.10430970 -.01296081  00000-0 -73724-0 0  3496
2 54114  87.6193 200.4678 0013898 109.7831  44.2429 14.11215887    10
ONEWEB-0495             
1 54115C 22138C   22349.28766619 -.01329348  00000-0 -84067-0 0  3493
2 54115  87.5932 200.4031 0016933 121.4227 234.5301 14.05426048    16
ONEWEB-0497             
1 54116C 22138D   22349.40361525 -.01425908  00000-0 -89104-0 0  3491
2 54116  87.5976 200.3746 0015006 107.6953  43.5744 14.06197351    11
ONEWEB-0499             
1 54117C 22138E   22349.40123098 -.01435074  00000-0 -86539-0 0  3497
2 54117  87.6073 200.3875 0017827 105.5752 239.6291 14.08140744    12
ONEWEB-0500             
1 54118C 22138F   22349.40257359 -.01450477  00000-0 -85053-0 0  3490
2 54118  87.6111 200.3832 0013091  98.4272 241.9146 14.09723824    17
ONEWEB-0501             
1 54119C 22138G   22349.38176339 -.01381110  00000-0 -85384-0 0  3490
2 54119  87.6021 200.3826 0017971 113.1579 230.1959 14.06717843    10
ONEWEB-0502             
1 54120C 22138H   22349.36958748 -.01422338  00000-0 -83470-0 0  3494
2 54120  87.6245 200.3986 0013267  96.1251 327.2215 14.09650196    11
ONEWEB-0503             
1 54121C 22138J   22349.26472638 -.01437449  00000-0 -86770-0 0  3498
2 54121  87.6051 200.4156 0017186 104.7936 239.3393 14.08093405    10
ONEWEB-0504             
1 54122C 22138K   22349.26650879 -.01431875  00000-0 -83713-0 0  3495
2 54122  87.6074 200.4160 0013777  99.9182 218.9526 14.09862091    18
ONEWEB-0505             
1 54123C 22138L   22349.40119627 -.01391799  00000-0 -87190-0 0  3496
2 54123  87.6025 200.3804 0017212 120.4253 221.0056 14.06007664    13
ONEWEB-0506             
1 54124C 22138M   22349.38767776 -.01491049  00000-0 -93443-0 0  3495
2 54124  87.6010 200.4037 0017825 121.6822 218.1664 14.06081648    18
ONEWEB-0507             
1 54125C 22138N   22349.36368470 -.01423893  00000-0 -79145-0 0  3497
2 54125  87.6436 200.3985 0014429 101.7524 232.4106 14.12593218    15
ONEWEB-0508             
1 54126C 22138P   22349.29182127 -.01403494  00000-0 -81979-0 0  3496
2 54126  87.6222 200.4225 0014987 103.5020 231.6822 14.09874347    14
ONEWEB-0509             
1 54127C 22138Q   22349.24389303 -.01458688  00000-0 -91260-0 0  3496
2 54127  87.6016 200.4161 0016868 112.2908 250.9934 14.06150774    13
ONEWEB-0510             
1 54128C 22138R   22349.36440229  .00002200  00000-0  37774-3 0  3490
2 54128  86.9019 197.9859 0012644 110.3373 313.5733 14.68784506    13
ONEWEB-0511             
1 54129C 22138S   22349.27480738 -.01410364  00000-0 -80042-0 0  3490
2 54129  87.6338 200.4173 0015384 100.3204 239.6070 14.11444151    10
ONEWEB-0512             
1 54130C 22138T   22349.39427499 -.01422209  00000-0 -89450-0 0  3493
2 54130  87.6012 200.3731 0016352 112.9732 311.1187 14.05826321    12
ONEWEB-0513             
1 54131C 22138U   22349.34667824 -.01863914  00000-0 -24885+1 0  3490
2 54131  87.6589 201.4330 0013589 109.9429  29.2870 13.62233436    14
ONEWEB-0514             
1 54132C 22138V   22349.28069859 -.01423929  00000-0 -83248-0 0  3494
2 54132  87.6213 200.4067 0014529 104.7494 241.9662 14.09849430    16
ONEWEB-0515             
1 54133C 22138W   22349.30400877 -.00000287  00000-0 -49209-4 0  3497
2 54133  86.9044 197.9704 0013366 104.0802 326.3266 14.68800964    15
ONEWEB-0516             
1 54134C 22138X   22349.35848795 -.01421472  00000-0 -83606-0 0  3497
2 54134  87.6075 200.3938 0014932 101.1083 237.3253 14.09515238    14
ONEWEB-0517             
1 54135C 22138Y   22349.38664766 -.01410860  00000-0 -83974-0 0  3492
2 54135  87.6192 200.3859 0015792 105.3199 252.7778 14.08848939    15
ONEWEB-0518             
1 54136C 22138Z   22349.50780507 -.01406448  00000-0 -85228-0 0  3490
2 54136  87.6035 200.3534 0017718 104.6476 326.3124 14.07845205    17
ONEWEB-0519             
1 54137C 22138AA  22349.27550183 -.01422363  00000-0 -80494-0 0  3494
2 54137  87.6261 200.4224 0012583  99.8498  46.2785 14.11630627    16
ONEWEB-0520             
1 54138C 22138AB  22349.38211062 -.01428931  00000-0 -86343-0 0  3493
2 54138  87.5977 200.3932 0016406 103.5526 232.9764 14.08036033    16
ONEWEB-0521             
1 54139C 22138AC  22349.26958749 -.01382596  00000-0 -86727-0 0  3493
2 54139  87.5957 200.4069 0017308 121.7647 215.5604 14.05924896    15
ONEWEB-0522             
1 54140C 22138AD  22349.37133516 -.01449774  00000-0 -89648-0 0  3491
2 54140  87.5949 200.4025 0018314 113.8824 201.3699 14.06772588    14
ONEWEB-0523             
1 54141C 22138AE  22349.36511988  .00002231  00000-0  38263-3 0  3494
2 54141  86.9024 197.9489 0012660 109.9469 316.2637 14.68840315    15
ONEWEB-0524             
1 54142C 22138AF  22349.36614998  .00002246  00000-0  38502-3 0  3492
2 54142  86.9042 197.9481 0012362 111.0925 315.8194 14.68853222    12
ONEWEB-0525             
1 54143C 22138AG  22349.39602267 -.01368955  00000-0 -80546-0 0  3499
2 54143  87.6098 200.3783 0015153 100.9800 245.8262 14.09440909    13
ONEWEB-0526             
1 54144C 22138AH  22349.38733053 -.01414851  00000-0 -88846-0 0  3495
2 54144  87.6037 200.3757 0017512 113.9677 231.3354 14.05896823    13
ONEWEB-0529             
1 54145C 22138AJ  22349.34044396 -.01416716  00000-0 -84491-0 0  3491
2 54145  87.6155 200.4057 0017497 111.6017 227.3397 14.08731286    10
ONEWEB-0531             
1 54146C 22138AK  22349.30331433 -.00000327  00000-0 -56085-4 0  3497
2 54146  86.9030 197.9763 0012808 109.5852 327.0939 14.68842820    16
ONEWEB-0535             
1 54147C 22138AL  22349.32134675 -.01457733  00000-0 -81936-0 0  3496
2 54147  87.6281 200.4086 0012647  99.0102 324.6801 14.12034947    16
ONEWEB-0536             
1 54148C 22138AM  22349.37236525  .00060321  00000-0  10369-1 0  3492
2 54148  86.9004 197.9834 0012331 105.4258 320.9356 14.68676758    14
ONEWEB-0527             
1 54642C 22166A   22349.09634674  .00000797  00000-0  80516-4 0  3493
2 54642  86.5173 155.6288 0007243 211.7894 214.8705 14.91156948    12
ONEWEB-0528             
1 54643C 22166B   22349.29771248  .00006483  00000-0  65511-3 0  3490
2 54643  86.5186 155.5409 0007241 211.6710 214.8225 14.91136363    11
ONEWEB-0539             
1 54644C 22166C   22349.36509675  .00006941  00000-0  69643-3 0  3491
2 54644  86.5167 155.5073 0008604 209.1944 225.0480 14.91412017    13
ONEWEB-0540             
1 54645C 22166D   22349.16472637  .00001537  00000-0  15574-3 0  3497
2 54645  86.5152 155.5970 0007003 215.7733 214.8680 14.91028184    11
ONEWEB-0542             
1 54646C 22166E   22349.42898562  .00004720  00000-0  46245-3 0  3492
2 54646  86.5174 155.4764 0011955 220.5359 217.7961 14.92337314    18
ONEWEB-0545             
1 54647C 22166F   22349.49841850 -.00000344  00000-0 -34832-4 0  3498
2 54647  86.5154 155.4497 0007168 212.5431 209.3646 14.91092409    12
ONEWEB-0580             
1 54648C 22166G   22349.22692544  .00004150  00000-0  40948-3 0  3495
2 54648  86.5161 155.5677 0011313 216.8545 210.8203 14.92068229    12
ONEWEB-0582             
1 54649C 22166H   22349.50014303 -.00000278  00000-0 -27726-4 0  3497
2 54649  86.5169 155.4456 0009404 209.2960 233.5629 14.91589818    15
ONEWEB-0583             
1 54650C 22166J   22349.49949488 -.00000149  00000-0 -14820-4 0  3496
2 54650  86.5173 155.4476 0010065 209.2730 233.6422 14.91743678    12
ONEWEB-0584             
1 54651C 22166K   22349.43208748  .00029616  00000-0  29526-2 0  3493
2 54651  86.5167 155.4757 0009702 209.6334 229.8458 14.91639160    14
ONEWEB-0585             
1 54652C 22166L   22349.09530507  .00000917  00000-0  92042-4 0  3495
2 54652  86.5175 155.6285 0008427 210.3544 215.7065 14.91387884    18
ONEWEB-0586             
1 54653C 22166M   22349.49914766 -.00000455  00000-0 -46292-4 0  3498
2 54653  86.5192 155.4537 0006618 218.9606 201.8982 14.90880651    12
